{
  "norad_id": 67993,
  "name": "STARLINK-36975",
  "history": [
    {
      "epoch": "2026-03-28T22:00:01.999584",
      "apogee_km": 431.8011833096489,
      "perigee_km": 430.33202953952605,
      "latitude_deg": 37.89164189820958,
      "longitude_deg": -12.69777824007906,
      "semi_major_axis_km": 6809.203606424587,
      "eccentricity": 0.00010788,
      "inclination_deg": 42.9995,
      "raan_deg": 300.7269,
      "arg_perigee_deg": 270.7066,
      "mean_anomaly_deg": 308.8793,
      "mean_motion_rev_day": 15.45106008
    },
    {
      "epoch": "2026-03-29T04:00:01.999584",
      "apogee_km": 435.00058169976546,
      "perigee_km": 433.1067926887263,
      "latitude_deg": -9.384182195950602,
      "longitude_deg": 11.30222175992094,
      "semi_major_axis_km": 6812.190687194246,
      "eccentricity": 0.000139,
      "inclination_deg": 42.9993,
      "raan_deg": 299.2751,
      "arg_perigee_deg": 274.5992,
      "mean_anomaly_deg": 256.7613,
      "mean_motion_rev_day": 15.44089848
    }
  ]
}